STARLINK-5883           
1 55956U 23037AU  26068.94100791 -.00000045  00000+0  40365-5 0  9990
2 55956  69.9983 263.7076 0001912 275.3776  84.7165 14.98329575164518
LEMUR-2-DELOITTE-1      
1 63259U 25052BB  26068.93956839  .00005004  00000+0  44206-3 0  9990
2 63259  97.7035 323.2090 0003011  78.3841 281.7719 14.96797120 53844
